TURKSAT 4A              
1 39522U 14007A   17345.65943070  .00000139  00000-0  00000-0 0  9990
2 39522   0.0242 283.2655 0005004 339.3832  97.2997  1.00273592 13828
